ASNARO-2                
1 43152U 18007A   26173.83863503  .00007543  00000+0  32944-3 0  9999
2 43152  97.3976 180.6775 0001757  86.9236 273.2201 15.22399759468272
JILIN-1 07              
1 43159U 18008E   26173.83048595  .00006889  00000+0  20621-3 0  9994
2 43159  97.1773 193.6084 0009447  48.4181 311.7871 15.34802238465862
JILIN-1 08              
1 43160U 18008F   26173.83447775  .00005001  00000+0  15537-3 0  9994
2 43160  97.1806 192.9229 0007779  64.5794 295.6254 15.33767691465811
S-NET D                 
1 43186U 18014G   26173.47595817  .00004009  00000+0  20784-3 0  9997
2 43186  97.5356  78.2333 0008350  13.7273 346.4185 15.16713673459564
S-NET B                 
1 43187U 18014H   26173.48751456  .00004044  00000+0  20981-3 0  9990
2 43187  97.5362  78.2315 0008834   8.1759 351.9616 15.16683517459569
S-NET A                 
1 43188U 18014J   26173.47480711  .00004057  00000+0  21025-3 0  9997
2 43188  97.5373  78.4286 0008736   9.0846 351.0543 15.16722102459563
S-NET C                 
1 43189U 18014K   26173.29349048  .00003892  00000+0  20205-3 0  9990
2 43189  97.5389  78.3239 0009887   0.7048 359.4197 15.16673916458089
PAZ                     
1 43215U 18020A   26173.83755012  .00001327  00000+0  66349-4 0  9990
2 43215  97.4448 181.1430 0001683  88.6439 271.4988 15.19153426461868
GOES 17                 
1 43226U 18022A   26173.65557049 -.00000180  00000+0  00000+0 0  9998
2 43226   0.9514  85.6088 0000495  16.4454 315.2567  1.00273217 30471
LKW-4                   
1 43236U 18025A   26173.45902948  .00035334  00000+0  39550-3 0  9996
2 43236  97.6351 344.7469 0002086 263.0963  97.0057 15.62643115460858
ZHUHAI-1 OVS-02         
1 43440U 18040B   26173.87430117  .00005624  00000+0  22741-3 0  9993
2 43440  97.0391 190.7666 0002355 202.6257 157.4879 15.25087789453588
ZHUHAI-1 OHS-02         
1 43441U 18040C   26173.85619547  .00006076  00000+0  23903-3 0  9991
2 43441  97.0373 197.6947 0008741 197.8787 162.2146 15.25949731115147
GAOFEN-6                
1 43484U 18048A   26174.23772124  .00000874  00000+0  13264-3 0  9999
2 43484  97.9971 236.9108 0011957 147.0258 213.1700 14.76540927434286
LUOJIA-1 01             
1 43485U 18048B   26173.82555801  .00001237  00000+0  14303-3 0  9994
2 43485  97.8096 251.9225 0010363 101.5820 258.6560 14.87299869435053
PAKTES 1A               
1 43529U 18056A   26173.81170522  .00001783  00000+0  15138-3 0  9997
2 43529  98.1298 330.5392 0021658  88.8319 271.5384 14.99121177432760
PRSS-1                  
1 43530U 18056B   26173.79386244  .00000079  00000+0  16438-4 0  9998
2 43530  97.7813 241.5087 0001521  74.9487 285.1894 14.81993485429269
HAIYANG-1C              
1 43609U 18068A   26173.82633395 -.00000067  00000+0 -84358-5 0  9990
2 43609  98.5185 246.0532 0012107  79.2458 281.0089 14.34179857407893
SSTL S1-4               
1 43618U 18071A   26173.83984979  .00000329  00000+0  33990-4 0  9996
2 43618  97.5017  45.2185 0001432 116.8469 243.2899 14.96183323423784
HAIYANG-2B              
1 43655U 18081A   26173.82102830 -.00000062  00000+0 -17101-4 0  9997
2 43655  99.3289 182.4925 0000120 354.8439   5.2711 13.79306863385700
CFOSAT                  
1 43662U 18083A   26173.83478050  .00002631  00000+0  13879-3 0  9997
2 43662  97.3607 178.1988 0002416  86.8067 273.3443 15.16402719423297
TEN-KOH                 
1 43677U 18084G   26173.78273337  .00001084  00000+0  85548-4 0  9993
2 43677  98.0766   6.3826 0011481  98.1388 262.1139 15.02957895417009
DIWATA-2B               
1 43678U 18084H   26173.83829685  .00002136  00000+0  17463-3 0  9992
2 43678  98.1199  10.2927 0012867 152.1678 208.0235 15.00474712417061
STARS-AO                
1 43679U 18084J   26173.08636269  .00004509  00000+0  23137-3 0  9995
2 43679  98.0503  27.3593 0003156 126.7971 233.3551 15.17096228418212
AUTCUBE 2               
1 43681U 18084K   26173.06749894  .00002649  00000+0  16679-3 0  9991
2 43681  98.0708  19.5005 0009651  34.3649 325.8201 15.10115465417660
METOP-C                 
1 43689U 18087A   26173.76942388  .00000052  00000+0  43522-4 0  9996
2 43689  98.6642 233.2710 0001930 122.6032 237.5332 14.21513372395623
ES'HAIL 2               
1 43700U 18090A   26173.82103547  .00000147  00000+0  00000+0 0  9991
2 43700   0.0147 298.5974 0001997 189.9310 103.8271  1.00272503 27730
MOHAMMED VI-B           
1 43717U 18095A   26173.79932263  .00000227  00000+0  39369-4 0  9999
2 43717  97.9550 246.0481 0001419  97.4162 262.7210 14.77122757409015
HYSIS                   
1 43719U 18096A   26173.82818840  .00001160  00000+0  16548-3 0  9990
2 43719  97.9833 240.5323 0001822  95.9653 264.1766 14.78627217408250
COSMOS 2530 (RODNIK-S *)
1 43751U 18097A   26173.85055520  .00000049  00000+0  28034-3 0  9996
2 43751  82.5133 218.7661 0019962  27.6814 332.5324 12.42881376342991
