OBJECT_NAME,OBJECT_ID,EPOCH,MEAN_MOTION,ECCENTRICITY,INCLINATION,RA_OF_ASC_NODE,ARG_OF_PERICENTER,MEAN_ANOMALY,EPHEMERIS_TYPE,CLASSIFICATION_TYPE,NORAD_CAT_ID,ELEMENT_SET_NO,REV_AT_EPOCH,BSTAR,MEAN_MOTION_DOT,MEAN_MOTION_DDOT
ASNARO-2,2018-007A,2026-06-22T20:07:38.066592,15.22399759,.0001757,97.3976,180.6775,86.9236,273.2201,0,U,43152,999,46827,.32943828E-3,.7543E-4,0
JILIN-1 07,2018-008E,2026-06-22T19:55:53.986080,15.34802238,.00094473,97.1773,193.6084,48.4181,311.7871,0,U,43159,999,46586,.20620998E-3,.6889E-4,0
JILIN-1 08,2018-008F,2026-06-22T20:01:38.877600,15.33767691,.0007779,97.1806,192.9229,64.5794,295.6254,0,U,43160,999,46581,.15536664E-3,.5001E-4,0
S-NET D,2018-014G,2026-06-22T11:25:22.785888,15.16713673,.00083506,97.5356,78.2333,13.7273,346.4185,0,U,43186,999,45956,.20784493E-3,.4009E-4,0
S-NET B,2018-014H,2026-06-22T11:42:01.257984,15.16683517,.00088347,97.5362,78.2315,8.1759,351.9616,0,U,43187,999,45956,.20981452E-3,.4044E-4,0
S-NET A,2018-014J,2026-06-22T11:23:43.334304,15.16722102,.00087365,97.5373,78.4286,9.0846,351.0543,0,U,43188,999,45956,.21025128E-3,.4057E-4,0
S-NET C,2018-014K,2026-06-22T07:02:37.577472,15.16673916,.00098876,97.5389,78.3239,0.7048,359.4197,0,U,43189,999,45808,.20205313E-3,.3892E-4,0
PAZ,2018-020A,2026-06-22T20:06:04.330368,15.19153426,.00016832,97.4448,181.1430,88.6439,271.4988,0,U,43215,999,46186,.66348886E-4,.1327E-4,0
GOES 17,2018-022A,2026-06-22T15:44:01.290336,1.00273217,.0000495,0.9514,85.6088,16.4454,315.2567,0,U,43226,999,3047,0,-.18E-5,0
LKW-4,2018-025A,2026-06-22T11:01:00.147072,15.62643115,.00020861,97.6351,344.7469,263.0963,97.0057,0,U,43236,999,46085,.39550218E-3,.35334E-3,0
ZHUHAI-1 OVS-02,2018-040B,2026-06-22T20:58:59.621088,15.25087789,.00023556,97.0391,190.7666,202.6257,157.4879,0,U,43440,999,45358,.22741189E-3,.5624E-4,0
ZHUHAI-1 OHS-02,2018-040C,2026-06-22T20:32:55.288608,15.25949731,.00087418,97.0373,197.6947,197.8787,162.2146,0,U,43441,999,11514,.23903185E-3,.6076E-4,0
GAOFEN-6,2018-048A,2026-06-23T05:42:19.115136,14.76540927,.0011957,97.9971,236.9108,147.0258,213.1700,0,U,43484,999,43428,.13264E-3,.874E-5,0
LUOJIA-1 01,2018-048B,2026-06-22T19:48:48.212064,14.87299869,.00103631,97.8096,251.9225,101.5820,258.6560,0,U,43485,999,43505,.14303398E-3,.1237E-4,0
PAKTES 1A,2018-056A,2026-06-22T19:28:51.331008,14.99121177,.00216584,98.1298,330.5392,88.8319,271.5384,0,U,43529,999,43276,.15137611E-3,.1783E-4,0
PRSS-1,2018-056B,2026-06-22T19:03:09.714816,14.81993485,.00015217,97.7813,241.5087,74.9487,285.1894,0,U,43530,999,42926,.16438251E-4,.79E-6,0
HAIYANG-1C,2018-068A,2026-06-22T19:49:55.253280,14.34179857,.00121073,98.5185,246.0532,79.2458,281.0089,0,U,43609,999,40789,-.8435776E-5,-.67E-6,0
SSTL S1-4,2018-071A,2026-06-22T20:09:23.021856,14.96183323,.00014327,97.5017,45.2185,116.8469,243.2899,0,U,43618,999,42378,.33990088E-4,.329E-5,0
HAIYANG-2B,2018-081A,2026-06-22T19:42:16.845120,13.79306863,.00001206,99.3289,182.4925,354.8439,5.2711,0,U,43655,999,38570,-.17101152E-4,-.62E-6,0
CFOSAT,2018-083A,2026-06-22T20:02:05.035200,15.16402719,.00024162,97.3607,178.1988,86.8067,273.3443,0,U,43662,999,42329,.13878545E-3,.2631E-4,0
TEN-KOH,2018-084G,2026-06-22T18:47:08.163168,15.02957895,.00114818,98.0766,6.3826,98.1388,262.1139,0,U,43677,999,41700,.85548297E-4,.1084E-4,0
DIWATA-2B,2018-084H,2026-06-22T20:07:08.847840,15.00474712,.00128671,98.1199,10.2927,152.1678,208.0235,0,U,43678,999,41706,.17463102E-3,.2136E-4,0
STARS-AO,2018-084J,2026-06-22T02:04:21.736416,15.17096228,.00031565,98.0503,27.3593,126.7971,233.3551,0,U,43679,999,41821,.23136838E-3,.4509E-4,0
AUTCUBE 2,2018-084K,2026-06-22T01:37:11.908416,15.10115465,.00096517,98.0708,19.5005,34.3649,325.8201,0,U,43681,999,41766,.16678934E-3,.2649E-4,0
METOP-C,2018-087A,2026-06-22T18:27:58.223232,14.21513372,.00019303,98.6642,233.2710,122.6032,237.5332,0,U,43689,999,39562,.43522228E-4,.52E-6,0
ES'HAIL 2,2018-090A,2026-06-22T19:42:17.464608,1.00272503,.00019971,0.0147,298.5974,189.9310,103.8271,0,U,43700,999,2773,0,.147E-5,0
MOHAMMED VI-B,2018-095A,2026-06-22T19:11:01.475232,14.77122757,.00014195,97.9550,246.0481,97.4162,262.7210,0,U,43717,999,40901,.39369147E-4,.227E-5,0
HYSIS,2018-096A,2026-06-22T19:52:35.477760,14.78627217,.00018228,97.9833,240.5323,95.9653,264.1766,0,U,43719,999,40825,.16548216E-3,.116E-4,0
COSMOS 2530 (RODNIK-S 16),2018-097A,2026-06-22T20:24:47.969280,12.42881376,.0019962,82.5133,218.7661,27.6814,332.5324,0,U,43751,999,34299,.28034246E-3,.49E-6,0
